
ORBCOMM FM04
1 25159U 98007C   26170.27565458  .00000635  00000+0  26301-3 0  9992
2 25159 107.9626 173.7177 0041412 321.1693  38.6474 14.35744649476898

ORBCOMM FM06
1 25118U 97084G   26170.02082235  .00000899  00000+0  28121-3 0  9995
2 25118  45.0146  43.8848 0000993 338.2917 161.3468 14.47566329494652

ORBCOMM FM108
1 41187U 15081J   26169.04056137  .00000258  00000+0  90814-4 0  9996
2 41187  47.0030 178.1625 0002987 224.9174 135.1471 14.58870752560204

ORBCOMM FM109
1 40086U 14040A   26170.01595539  .00000301  00000+0  99899-4 0  9991
2 40086  47.0031  82.8397 0001935 251.0787 108.9889 14.58846512634617

ORBCOMM FM110
1 41182U 15081D   26170.22697866  .00000485  00000+0  13879-3 0  9990
2 41182  47.0032 351.7984 0002476  88.5041 271.6129 14.58883056557920

ORBCOMM FM112
1 41184U 15081F   26170.26575552  .00000392  00000+0  11904-3 0  9997
2 41184  46.9988 260.4183 0003844 226.3629 133.6938 14.58906904559252

ORBCOMM FM113
1 41185U 15081G   26170.24244790  .00000228  00000+0  84552-4 0  9991
2 41185  47.0007 260.9057 0002361 231.7554 128.3120 14.58860127559230

ORBCOMM FM116
1 41189U 15081L   26170.28774440  .00000409  00000+0  12261-3 0  9997
2 41189  47.0018 260.6896 0000519  88.7713 271.3233 14.58885951559241

ORBCOMM FM117
1 41188U 15081K   26170.17034884  .00000129  00000+0  63647-4 0  9999
2 41188  46.9991 171.4540 0003554 232.2319 127.8245 14.58865917560412

ORBCOMM FM118
1 41183U 15081E   26169.91880297  .00001935  00000+0  44524-3 0  9999
2 41183  47.0047 353.5866 0002527  37.2659 322.8402 14.58881067557988

ORBCOMM FM19
1 25415U 98046C   26170.22912669  .00000481  00000+0  19808-3 0  9998
2 25415  44.9924 233.8552 0004536 289.7326 111.3755 14.39498361457078

ORBCOMM FM20
1 25416U 98046D   26169.88865265  .00000351  00000+0  16146-3 0  9996
2 25416  44.9933 243.4154 0002355 255.8652 104.1935 14.38068084457037

ORBCOMM FM27
1 25481U 98053G   26170.13124017  .00000614  00000+0  24224-3 0  9997
2 25481  45.0043 326.1186 0001197 200.3982 159.6819 14.39143880450512

ORBCOMM FM32
1 25982U 99065C   26170.02832377  .00000298  00000+0  14666-3 0  9997
2 25982  45.0135 164.5248 0004384  45.3038 314.8166 14.37131404387351
